[{"OBJECT_NAME":"ONEWEB-0027","OBJECT_ID":"2020-020J","EPOCH":"2026-06-08T03:25:41.694816","MEAN_MOTION":13.160536,"ECCENTRICITY":0.000182,"INCLINATION":87.915,"RA_OF_ASC_NODE":7.6614,"ARG_OF_PERICENTER":97.2472,"MEAN_ANOMALY":262.8866,"EPHEMERIS_TYPE":0,"CLASSIFICATION_TYPE":"U","NORAD_CAT_ID":45432,"ELEMENT_SET_NO":999,"REV_AT_EPOCH":30516,"BSTAR":-0.00017196,"MEAN_MOTION_DOT":-5.2e-07,"MEAN_MOTION_DDOT":0.0},{"OBJECT_NAME":"ONEWEB-0064","OBJECT_ID":"2020-020K","EPOCH":"2026-06-08T04:23:01.970880","MEAN_MOTION":13.11416343,"ECCENTRICITY":0.0001722,"INCLINATION":87.8897,"RA_OF_ASC_NODE":22.8591,"ARG_OF_PERICENTER":89.3302,"MEAN_ANOMALY":270.8023,"EPHEMERIS_TYPE":0,"CLASSIFICATION_TYPE":"U","NORAD_CAT_ID":45433,"ELEMENT_SET_NO":999,"REV_AT_EPOCH":30150,"BSTAR":-0.0018008,"MEAN_MOTION_DOT":-6.25e-06,"MEAN_MOTION_DDOT":0.0},{"OBJECT_NAME":"ONEWEB-0018","OBJECT_ID":"2020-020L","EPOCH":"2026-06-08T03:19:34.046400","MEAN_MOTION":13.11419512,"ECCENTRICITY":0.0001576,"INCLINATION":87.8897,"RA_OF_ASC_NODE":22.8675,"ARG_OF_PERICENTER":73.7483,"MEAN_ANOMALY":286.3818,"EPHEMERIS_TYPE":0,"CLASSIFICATION_TYPE":"U","NORAD_CAT_ID":45434,"ELEMENT_SET_NO":999,"REV_AT_EPOCH":30144,"BSTAR":0.0011354,"MEAN_MOTION_DOT":4.15e-06,"MEAN_MOTION_DDOT":0.0},{"OBJECT_NAME":"ONEWEB-0083","OBJECT_ID":"2020-020M","EPOCH":"2026-06-08T03:05:07.506240","MEAN_MOTION":13.11418311,"ECCENTRICITY":0.0001718,"INCLINATION":87.8905,"RA_OF_ASC_NODE":22.8628,"ARG_OF_PERICENTER":83.6649,"MEAN_ANOMALY":276.4674,"EPHEMERIS_TYPE":0,"CLASSIFICATION_TYPE":"U","NORAD_CAT_ID":45435,"ELEMENT_SET_NO":999,"REV_AT_EPOCH":30148,"BSTAR":-0.00013437,"MEAN_MOTION_DOT":-3.5e-07,"MEAN_MOTION_DDOT":0.0},{"OBJECT_NAME":"ONEWEB-0095","OBJECT_ID":"2020-020N","EPOCH":"2026-06-08T02:52:57.114336","MEAN_MOTION":13.11393189,"ECCENTRICITY":0.0002864,"INCLINATION":87.8939,"RA_OF_ASC_NODE":22.8767,"ARG_OF_PERICENTER":97.1551,"MEAN_ANOMALY":262.9903,"EPHEMERIS_TYPE":0,"CLASSIFICATION_TYPE":"U","NORAD_CAT_ID":45436,"ELEMENT_SET_NO":999,"REV_AT_EPOCH":30148,"BSTAR":-0.0020525,"MEAN_MOTION_DOT":-7.14e-06,"MEAN_MOTION_DDOT":0.0},{"OBJECT_NAME":"ONEWEB-0092","OBJECT_ID":"2020-020P","EPOCH":"2026-06-08T03:38:55.338432","MEAN_MOTION":13.1195508,"ECCENTRICITY":0.0002129,"INCLINATION":87.8903,"RA_OF_ASC_NODE":22.8587,"ARG_OF_PERICENTER":85.9918,"MEAN_ANOMALY":274.1454,"EPHEMERIS_TYPE":0,"CLASSIFICATION_TYPE":"U","NORAD_CAT_ID":45437,"ELEMENT_SET_NO":999,"REV_AT_EPOCH":30160,"BSTAR":0.0014328,"MEAN_MOTION_DOT":5.25e-06,"MEAN_MOTION_DDOT":0.0},{"OBJECT_NAME":"ONEWEB-0085","OBJECT_ID":"2020-020Q","EPOCH":"2026-06-08T03:04:43.396320","MEAN_MOTION":13.11419786,"ECCENTRICITY":0.0001804,"INCLINATION":87.8897,"RA_OF_ASC_NODE":22.8701,"ARG_OF_PERICENTER":84.3519,"MEAN_ANOMALY":275.7815,"EPHEMERIS_TYPE":0,"CLASSIFICATION_TYPE":"U","NORAD_CAT_ID":45438,"ELEMENT_SET_NO":999,"REV_AT_EPOCH":30148,"BSTAR":-0.00012277000000000002,"MEAN_MOTION_DOT":-3.1e-07,"MEAN_MOTION_DDOT":0.0},{"OBJECT_NAME":"ONEWEB-0096","OBJECT_ID":"2020-020R","EPOCH":"2026-06-08T03:07:24.633408","MEAN_MOTION":13.11424012,"ECCENTRICITY":0.0001826,"INCLINATION":87.8906,"RA_OF_ASC_NODE":22.8651,"ARG_OF_PERICENTER":86.6668,"MEAN_ANOMALY":273.4669,"EPHEMERIS_TYPE":0,"CLASSIFICATION_TYPE":"U","NORAD_CAT_ID":45439,"ELEMENT_SET_NO":999,"REV_AT_EPOCH":30147,"BSTAR":0.00023389,"MEAN_MOTION_DOT":9.6e-07,"MEAN_MOTION_DDOT":0.0},{"OBJECT_NAME":"ONEWEB-0037","OBJECT_ID":"2020-020S","EPOCH":"2026-06-08T04:00:13.046688","MEAN_MOTION":13.11910778,"ECCENTRICITY":0.0001882,"INCLINATION":87.8914,"RA_OF_ASC_NODE":22.8314,"ARG_OF_PERICENTER":85.8344,"MEAN_ANOMALY":274.2999,"EPHEMERIS_TYPE":0,"CLASSIFICATION_TYPE":"U","NORAD_CAT_ID":45440,"ELEMENT_SET_NO":999,"REV_AT_EPOCH":30151,"BSTAR":0.00026798,"MEAN_MOTION_DOT":1.08e-06,"MEAN_MOTION_DDOT":0.0},{"OBJECT_NAME":"ONEWEB-0042","OBJECT_ID":"2020-020T","EPOCH":"2026-06-08T02:52:30.092736","MEAN_MOTION":13.11418609,"ECCENTRICITY":0.0001861,"INCLINATION":87.8903,"RA_OF_ASC_NODE":22.8636,"ARG_OF_PERICENTER":81.3443,"MEAN_ANOMALY":278.7896,"EPHEMERIS_TYPE":0,"CLASSIFICATION_TYPE":"U","NORAD_CAT_ID":45441,"ELEMENT_SET_NO":999,"REV_AT_EPOCH":30147,"BSTAR":-0.0012223000000000002,"MEAN_MOTION_DOT":-4.21e-06,"MEAN_MOTION_DDOT":0.0},{"OBJECT_NAME":"ONEWEB-0098","OBJECT_ID":"2020-020U","EPOCH":"2026-06-08T02:46:36.105024","MEAN_MOTION":13.11417643,"ECCENTRICITY":0.0001717,"INCLINATION":87.8901,"RA_OF_ASC_NODE":22.8737,"ARG_OF_PERICENTER":85.8837,"MEAN_ANOMALY":274.2487,"EPHEMERIS_TYPE":0,"CLASSIFICATION_TYPE":"U","NORAD_CAT_ID":45442,"ELEMENT_SET_NO":999,"REV_AT_EPOCH":30145,"BSTAR":-0.0011643,"MEAN_MOTION_DOT":-4e-06,"MEAN_MOTION_DDOT":0.0},{"OBJECT_NAME":"ONEWEB-0055","OBJECT_ID":"2020-020V","EPOCH":"2026-06-08T02:15:54.323136","MEAN_MOTION":13.11413236,"ECCENTRICITY":0.0001729,"INCLINATION":87.89,"RA_OF_ASC_NODE":22.8763,"ARG_OF_PERICENTER":85.5932,"MEAN_ANOMALY":274.5393,"EPHEMERIS_TYPE":0,"CLASSIFICATION_TYPE":"U","NORAD_CAT_ID":45443,"ELEMENT_SET_NO":999,"REV_AT_EPOCH":30142,"BSTAR":-0.00034674,"MEAN_MOTION_DOT":-1.1e-06,"MEAN_MOTION_DDOT":0.0},{"OBJECT_NAME":"ONEWEB-0093","OBJECT_ID":"2020-020W","EPOCH":"2026-06-08T03:36:51.730272","MEAN_MOTION":13.11418043,"ECCENTRICITY":0.0002043,"INCLINATION":87.8905,"RA_OF_ASC_NODE":22.858,"ARG_OF_PERICENTER":74.8518,"MEAN_ANOMALY":285.2836,"EPHEMERIS_TYPE":0,"CLASSIFICATION_TYPE":"U","NORAD_CAT_ID":45444,"ELEMENT_SET_NO":999,"REV_AT_EPOCH":30149,"BSTAR":0.0015265,"MEAN_MOTION_DOT":5.54e-06,"MEAN_MOTION_DDOT":0.0},{"OBJECT_NAME":"ONEWEB-0029","OBJECT_ID":"2020-020X","EPOCH":"2026-06-08T04:15:55.319040","MEAN_MOTION":13.11418296,"ECCENTRICITY":0.0001808,"INCLINATION":87.8892,"RA_OF_ASC_NODE":22.8626,"ARG_OF_PERICENTER":75.5236,"MEAN_ANOMALY":284.6092,"EPHEMERIS_TYPE":0,"CLASSIFICATION_TYPE":"U","NORAD_CAT_ID":45445,"ELEMENT_SET_NO":999,"REV_AT_EPOCH":30147,"BSTAR":-0.00094104,"MEAN_MOTION_DOT":-3.21e-06,"MEAN_MOTION_DDOT":0.0},{"OBJECT_NAME":"ONEWEB-0068","OBJECT_ID":"2020-020Y","EPOCH":"2026-06-08T03:36:28.548288","MEAN_MOTION":13.11417011,"ECCENTRICITY":0.0001817,"INCLINATION":87.8905,"RA_OF_ASC_NODE":22.8618,"ARG_OF_PERICENTER":77.9114,"MEAN_ANOMALY":282.2217,"EPHEMERIS_TYPE":0,"CLASSIFICATION_TYPE":"U","NORAD_CAT_ID":45446,"ELEMENT_SET_NO":999,"REV_AT_EPOCH":30141,"BSTAR":0.0015864,"MEAN_MOTION_DOT":5.75e-06,"MEAN_MOTION_DDOT":0.0},{"OBJECT_NAME":"ONEWEB-0046","OBJECT_ID":"2020-020Z","EPOCH":"2026-06-08T03:24:27.001152","MEAN_MOTION":13.11419108,"ECCENTRICITY":0.0002039,"INCLINATION":87.8898,"RA_OF_ASC_NODE":22.8702,"ARG_OF_PERICENTER":80.8077,"MEAN_ANOMALY":279.3281,"EPHEMERIS_TYPE":0,"CLASSIFICATION_TYPE":"U","NORAD_CAT_ID":45447,"ELEMENT_SET_NO":999,"REV_AT_EPOCH":30142,"BSTAR":0.0013781,"MEAN_MOTION_DOT":5.01e-06,"MEAN_MOTION_DDOT":0.0},{"OBJECT_NAME":"ONEWEB-0063","OBJECT_ID":"2020-020AA","EPOCH":"2026-06-08T04:06:09.150336","MEAN_MOTION":13.11417028,"ECCENTRICITY":0.0002101,"INCLINATION":87.8903,"RA_OF_ASC_NODE":22.8624,"ARG_OF_PERICENTER":87.9456,"MEAN_ANOMALY":272.1913,"EPHEMERIS_TYPE":0,"CLASSIFICATION_TYPE":"U","NORAD_CAT_ID":45448,"ELEMENT_SET_NO":999,"REV_AT_EPOCH":30151,"BSTAR":-0.00019119,"MEAN_MOTION_DOT":-5.5e-07,"MEAN_MOTION_DDOT":0.0},{"OBJECT_NAME":"ONEWEB-0019","OBJECT_ID":"2020-020AB","EPOCH":"2026-06-08T03:12:03.028032","MEAN_MOTION":13.11418851,"ECCENTRICITY":0.0001686,"INCLINATION":87.8899,"RA_OF_ASC_NODE":22.8573,"ARG_OF_PERICENTER":86.4438,"MEAN_ANOMALY":273.6883,"EPHEMERIS_TYPE":0,"CLASSIFICATION_TYPE":"U","NORAD_CAT_ID":45449,"ELEMENT_SET_NO":999,"REV_AT_EPOCH":30135,"BSTAR":0.00036126999999999996,"MEAN_MOTION_DOT":1.41e-06,"MEAN_MOTION_DDOT":0.0},{"OBJECT_NAME":"ONEWEB-0094","OBJECT_ID":"2020-020AC","EPOCH":"2026-06-08T02:10:26.473152","MEAN_MOTION":13.17650019,"ECCENTRICITY":0.0001672,"INCLINATION":87.9149,"RA_OF_ASC_NODE":7.6583,"ARG_OF_PERICENTER":82.2389,"MEAN_ANOMALY":277.8932,"EPHEMERIS_TYPE":0,"CLASSIFICATION_TYPE":"U","NORAD_CAT_ID":45450,"ELEMENT_SET_NO":999,"REV_AT_EPOCH":30511,"BSTAR":-2.6529000000000003e-05,"MEAN_MOTION_DOT":3e-08,"MEAN_MOTION_DDOT":0.0},{"OBJECT_NAME":"ONEWEB-0087","OBJECT_ID":"2020-020AD","EPOCH":"2026-06-08T04:20:23.836416","MEAN_MOTION":13.1141599,"ECCENTRICITY":0.0001791,"INCLINATION":87.8913,"RA_OF_ASC_NODE":22.8337,"ARG_OF_PERICENTER":74.4376,"MEAN_ANOMALY":285.695,"EPHEMERIS_TYPE":0,"CLASSIFICATION_TYPE":"U","NORAD_CAT_ID":45451,"ELEMENT_SET_NO":999,"REV_AT_EPOCH":30140,"BSTAR":-0.0013980000000000002,"MEAN_MOTION_DOT":-4.83e-06,"MEAN_MOTION_DDOT":0.0},{"OBJECT_NAME":"ONEWEB-0082","OBJECT_ID":"2020-020AE","EPOCH":"2026-06-08T04:15:32.007456","MEAN_MOTION":13.11416563,"ECCENTRICITY":0.0002028,"INCLINATION":87.8902,"RA_OF_ASC_NODE":22.8517,"ARG_OF_PERICENTER":71.1262,"MEAN_ANOMALY":289.0086,"EPHEMERIS_TYPE":0,"CLASSIFICATION_TYPE":"U","NORAD_CAT_ID":45452,"ELEMENT_SET_NO":999,"REV_AT_EPOCH":30149,"BSTAR":-0.00075086,"MEAN_MOTION_DOT":-2.53e-06,"MEAN_MOTION_DDOT":0.0},{"OBJECT_NAME":"ONEWEB-0050","OBJECT_ID":"2020-020AF","EPOCH":"2026-06-08T05:05:54.553344","MEAN_MOTION":14.90344455,"ECCENTRICITY":0.000449,"INCLINATION":88.9299,"RA_OF_ASC_NODE":234.4284,"ARG_OF_PERICENTER":47.0946,"MEAN_ANOMALY":313.0659,"EPHEMERIS_TYPE":0,"CLASSIFICATION_TYPE":"U","NORAD_CAT_ID":45453,"ELEMENT_SET_NO":999,"REV_AT_EPOCH":33904,"BSTAR":0.00028186,"MEAN_MOTION_DOT":2.761e-05,"MEAN_MOTION_DDOT":0.0},{"OBJECT_NAME":"ONEWEB-0034","OBJECT_ID":"2020-020AG","EPOCH":"2026-06-08T03:19:17.470560","MEAN_MOTION":13.11033516,"ECCENTRICITY":0.0001694,"INCLINATION":87.8907,"RA_OF_ASC_NODE":22.8696,"ARG_OF_PERICENTER":87.4634,"MEAN_ANOMALY":272.6688,"EPHEMERIS_TYPE":0,"CLASSIFICATION_TYPE":"U","NORAD_CAT_ID":45454,"ELEMENT_SET_NO":999,"REV_AT_EPOCH":30140,"BSTAR":0.034854,"MEAN_MOTION_DOT":0.00012313,"MEAN_MOTION_DDOT":0.0}]